start=new Date('2021-08-31T00:00:00.000Z').valueOf();
sats=[{"EPHEMERIS_TYPE":"0","RCS_SIZE":"LARGE","MEAN_MOTION_DDOT":"0.0000000000000","TIME_SYSTEM":"UTC","RA_OF_ASC_NODE":"46.7746","PERIAPSIS":"546.251","DECAY_DATE":null,"INCLINATION":"53.0393","SEMIMAJOR_AXIS":"6925.491","TLE_LINE2":"2 48472  53.0393  46.7746 0001596 110.0816 237.5780 15.06353568 17970","COUNTRY_CODE":"US","MEAN_ANOMALY":"237.5780","APOAPSIS":"548.461","MEAN_MOTION_DOT":"0.00042746","GP_ID":"183736635","REV_AT_EPOCH":"1797","OBJECT_ID":"2021-040AW","OBJECT_TYPE":"PAYLOAD","CLASSIFICATION_TYPE":"U","REF_FRAME":"TEME","CENTER_NAME":"EARTH","TLE_LINE1":"1 48472U 21040AW  21242.91668981  .00042746  00000-0  28748-2 0  9995","SITE":"AFETR","EPOCH":"2021-08-30T22:00:01.999584","NORAD_CAT_ID":"48472","OBJECT_NAME":"STARLINK-2722","PERIOD":"95.595","ARG_OF_PERICENTER":"110.0816","MEAN_MOTION":"15.06353568","ELEMENT_SET_NO":"999","MEAN_ELEMENT_THEORY":"SGP4","FILE":"3105775","LAUNCH_DATE":"2021-05-09","ECCENTRICITY":"0.00015960","BSTAR":"0.00287480000000"},{"BSTAR":"-0.00184000000000","ELEMENT_SET_NO":"999","FILE":"3105635","MEAN_ELEMENT_THEORY":"SGP4","LAUNCH_DATE":"2021-05-09","ECCENTRICITY":"0.00015000","NORAD_CAT_ID":"48473","OBJECT_NAME":"STARLINK-2658","MEAN_MOTION":"15.06399955","PERIOD":"95.592","ARG_OF_PERICENTER":"129.7049","CENTER_NAME":"EARTH","SITE":"AFETR","TLE_LINE1":"1 48473U 21040AX  21242.58334491 -.00027583  00000-0 -18400-2 0  9993","EPOCH":"2021-08-30T14:00:01.000224","REF_FRAME":"TEME","OBJECT_TYPE":"PAYLOAD","CLASSIFICATION_TYPE":"U","OBJECT_ID":"2021-040AX","GP_ID":"183733575","REV_AT_EPOCH":"359","MEAN_ANOMALY":"9.2013","APOAPSIS":"548.252","MEAN_MOTION_DOT":"-0.00027583","COUNTRY_CODE":"US","TLE_LINE2":"2 48473  53.0572  48.2056 0001500 129.7049   9.2013 15.06399955  3597","INCLINATION":"53.0572","SEMIMAJOR_AXIS":"6925.349","RA_OF_ASC_NODE":"48.2056","PERIAPSIS":"546.175","DECAY_DATE":null,"TIME_SYSTEM":"UTC","EPHEMERIS_TYPE":"0","RCS_SIZE":"LARGE","MEAN_MOTION_DDOT":"0.0000000000000"},{"OBJECT_ID":"2021-040AY","EPOCH":"2021-08-30T14:00:01.000224","SITE":"AFETR","TLE_LINE1":"1 48474U 21040AY  21242.58334491 -.00024549  00000-0 -16350-2 0  9995","CENTER_NAME":"EARTH","OBJECT_TYPE":"PAYLOAD","REF_FRAME":"TEME","CLASSIFICATION_TYPE":"U","ECCENTRICITY":"0.00019800","LAUNCH_DATE":"2021-05-09","FILE":"3105635","MEAN_ELEMENT_THEORY":"SGP4","ELEMENT_SET_NO":"999","MEAN_MOTION":"15.06394167","PERIOD":"95.593","ARG_OF_PERICENTER":"128.0221","OBJECT_NAME":"STARLINK-2697","NORAD_CAT_ID":"48474","BSTAR":"-0.00163500000000","TIME_SYSTEM":"UTC","MEAN_MOTION_DDOT":"0.0000000000000","RCS_SIZE":"LARGE","EPHEMERIS_TYPE":"0","SEMIMAJOR_AXIS":"6925.366","INCLINATION":"53.0379","DECAY_DATE":null,"PERIAPSIS":"545.860","RA_OF_ASC_NODE":"48.2872","COUNTRY_CODE":"US","TLE_LINE2":"2 48474  53.0379  48.2872 0001980 128.0221 190.9086 15.06394167  3593","REV_AT_EPOCH":"359","GP_ID":"183733393","APOAPSIS":"548.603","MEAN_MOTION_DOT":"-0.00024549","MEAN_ANOMALY":"190.9086"},{"ECCENTRICITY":"0.00017210","ELEMENT_SET_NO":"999","MEAN_ELEMENT_THEORY":"SGP4","FILE":"3105635","LAUNCH_DATE":"2021-05-09","OBJECT_NAME":"STARLINK-2619","MEAN_MOTION":"15.06387578","PERIOD":"95.593","ARG_OF_PERICENTER":"123.6957","NORAD_CAT_ID":"48475","BSTAR":"-0.00191030000000","OBJECT_ID":"2021-040AZ","EPOCH":"2021-08-30T14:00:01.000224","CENTER_NAME":"EARTH","SITE":"AFETR","TLE_LINE1":"1 48475U 21040AZ  21242.58334491 -.00028612  00000-0 -19103-2 0  9990","CLASSIFICATION_TYPE":"U","OBJECT_TYPE":"PAYLOAD","REF_FRAME":"TEME","COUNTRY_CODE":"US","TLE_LINE2":"2 48475  53.0561  48.2007 0001721 123.6957 355.2329 15.06387578  3591","REV_AT_EPOCH":"359","GP_ID":"183733482","APOAPSIS":"548.443","MEAN_MOTION_DOT":"-0.00028612","MEAN_ANOMALY":"355.2329","TIME_SYSTEM":"UTC","RCS_SIZE":"LARGE","MEAN_MOTION_DDOT":"0.0000000000000","EPHEMERIS_TYPE":"0","SEMIMAJOR_AXIS":"6925.387","INCLINATION":"53.0561","DECAY_DATE":null,"RA_OF_ASC_NODE":"48.2007","PERIAPSIS":"546.060"},{"OBJECT_TYPE":"PAYLOAD","CLASSIFICATION_TYPE":"U","REF_FRAME":"TEME","EPOCH":"2021-08-30T14:00:01.000224","TLE_LINE1":"1 48476U 21040BA  21242.58334491  .00079045  00000-0  52905-2 0  9992","SITE":"AFETR","CENTER_NAME":"EARTH","OBJECT_ID":"2021-040BA","BSTAR":"0.00529050000000","PERIOD":"95.603","ARG_OF_PERICENTER":"107.6456","MEAN_MOTION":"15.06230758","OBJECT_NAME":"STARLINK-2723","NORAD_CAT_ID":"48476","ECCENTRICITY":"0.00014350","LAUNCH_DATE":"2021-05-09","FILE":"3105635","MEAN_ELEMENT_THEORY":"SGP4","ELEMENT_SET_NO":"999","DECAY_DATE":null,"PERIAPSIS":"546.738","RA_OF_ASC_NODE":"48.4597","SEMIMAJOR_AXIS":"6925.867","INCLINATION":"53.0540","MEAN_MOTION_DDOT":"0.0000000000000","RCS_SIZE":"LARGE","EPHEMERIS_TYPE":"0","TIME_SYSTEM":"UTC","APOAPSIS":"548.726","MEAN_MOTION_DOT":"0.00079045","MEAN_ANOMALY":"251.4421","REV_AT_EPOCH":"358","GP_ID":"183733300","TLE_LINE2":"2 48476  53.0540  48.4597 0001435 107.6456 251.4421 15.06230758  3589","COUNTRY_CODE":"US"},{"NORAD_CAT_ID":"48478","OBJECT_NAME":"STARLINK-2728","PERIOD":"95.593","ARG_OF_PERICENTER":"126.2940","MEAN_MOTION":"15.06386648","ELEMENT_SET_NO":"999","LAUNCH_DATE":"2021-05-09","FILE":"3105635","MEAN_ELEMENT_THEORY":"SGP4","ECCENTRICITY":"0.00018360","BSTAR":"-0.00202000000000","OBJECT_ID":"2021-040BC","CLASSIFICATION_TYPE":"U","OBJECT_TYPE":"PAYLOAD","REF_FRAME":"TEME","CENTER_NAME":"EARTH","SITE":"AFETR","TLE_LINE1":"1 48478U 21040BC  21242.58334491 -.00030232  00000-0 -20200-2 0  9994","EPOCH":"2021-08-30T14:00:01.000224","TLE_LINE2":"2 48478  53.0559  48.2022 0001836 126.2940 312.6360 15.06386648  3595","COUNTRY_CODE":"US","MEAN_ANOMALY":"312.6360","MEAN_MOTION_DOT":"-0.00030232","APOAPSIS":"548.526","GP_ID":"183733235","REV_AT_EPOCH":"359","EPHEMERIS_TYPE":"0","RCS_SIZE":"LARGE","MEAN_MOTION_DDOT":"0.0000000000000","TIME_SYSTEM":"UTC","RA_OF_ASC_NODE":"48.2022","PERIAPSIS":"545.983","DECAY_DATE":null,"INCLINATION":"53.0559","SEMIMAJOR_AXIS":"6925.389"},{"OBJECT_ID":"2021-040BD","TLE_LINE1":"1 48479U 21040BD  21242.58334491 -.00029341  00000-0 -19587-2 0  9990","SITE":"AFETR","CENTER_NAME":"EARTH","EPOCH":"2021-08-30T14:00:01.000224","CLASSIFICATION_TYPE":"U","OBJECT_TYPE":"PAYLOAD","REF_FRAME":"TEME","FILE":"3105635","MEAN_ELEMENT_THEORY":"SGP4","LAUNCH_DATE":"2021-05-09","ELEMENT_SET_NO":"999","ECCENTRICITY":"0.00018340","NORAD_CAT_ID":"48479","PERIOD":"95.592","MEAN_MOTION":"15.06404291","ARG_OF_PERICENTER":"115.0332","OBJECT_NAME":"STARLINK-2755","BSTAR":"-0.00195870000000","TIME_SYSTEM":"UTC","EPHEMERIS_TYPE":"0","MEAN_MOTION_DDOT":"0.0000000000000","RCS_SIZE":"LARGE","INCLINATION":"53.0560","SEMIMAJOR_AXIS":"6925.335","PERIAPSIS":"545.930","RA_OF_ASC_NODE":"48.2027","DECAY_DATE":null,"COUNTRY_CODE":"US","TLE_LINE2":"2 48479  53.0560  48.2027 0001834 115.0332 343.8942 15.06404291  3599","GP_ID":"183733053","REV_AT_EPOCH":"359","MEAN_ANOMALY":"343.8942","APOAPSIS":"548.471","MEAN_MOTION_DOT":"-0.00029341"},{"CENTER_NAME":"EARTH","TLE_LINE1":"1 48480U 21040BE  21242.77799826 -.00001638  00000-0 -91118-4 0  9991","SITE":"AFETR","EPOCH":"2021-08-30T18:40:19.049664","OBJECT_TYPE":"PAYLOAD","CLASSIFICATION_TYPE":"U","REF_FRAME":"TEME","OBJECT_ID":"2021-040BE","BSTAR":"-0.00009111800000","ELEMENT_SET_NO":"999","FILE":"3105776","MEAN_ELEMENT_THEORY":"SGP4","LAUNCH_DATE":"2021-05-09","ECCENTRICITY":"0.00019150","NORAD_CAT_ID":"48480","OBJECT_NAME":"STARLINK-2690","MEAN_MOTION":"15.06392282","PERIOD":"95.593","ARG_OF_PERICENTER":"113.2012","INCLINATION":"53.0571","SEMIMAJOR_AXIS":"6925.372","RA_OF_ASC_NODE":"57.3240","PERIAPSIS":"545.911","DECAY_DATE":null,"TIME_SYSTEM":"UTC","EPHEMERIS_TYPE":"0","RCS_SIZE":"LARGE","MEAN_MOTION_DDOT":"0.0000000000000","GP_ID":"183736262","REV_AT_EPOCH":"1864","MEAN_ANOMALY":"246.9179","APOAPSIS":"548.563","MEAN_MOTION_DOT":"-0.00001638","COUNTRY_CODE":"US","TLE_LINE2":"2 48480  53.0571  57.3240 0001915 113.2012 246.9179 15.06392282 18649"},{"COUNTRY_CODE":"US","TLE_LINE2":"2 48481  53.0527  57.2695 0002111 117.8700 242.2503 15.06387580 18642","REV_AT_EPOCH":"1864","GP_ID":"183736259","APOAPSIS":"548.714","MEAN_MOTION_DOT":"-0.00002127","MEAN_ANOMALY":"242.2503","TIME_SYSTEM":"UTC","MEAN_MOTION_DDOT":"0.0000000000000","RCS_SIZE":"LARGE","EPHEMERIS_TYPE":"0","SEMIMAJOR_AXIS":"6925.387","INCLINATION":"53.0527","DECAY_DATE":null,"PERIAPSIS":"545.790","RA_OF_ASC_NODE":"57.2695","ECCENTRICITY":"0.00021110","FILE":"3105776","MEAN_ELEMENT_THEORY":"SGP4","LAUNCH_DATE":"2021-05-09","ELEMENT_SET_NO":"999","MEAN_MOTION":"15.06387580","PERIOD":"95.593","ARG_OF_PERICENTER":"117.8700","OBJECT_NAME":"STARLINK-2706","NORAD_CAT_ID":"48481","BSTAR":"-0.00012393000000","OBJECT_ID":"2021-040BF","EPOCH":"2021-08-30T19:00:12.148992","TLE_LINE1":"1 48481U 21040BF  21242.79180728 -.00002127  00000-0 -12393-3 0  9990","SITE":"AFETR","CENTER_NAME":"EARTH","OBJECT_TYPE":"PAYLOAD","CLASSIFICATION_TYPE":"U","REF_FRAME":"TEME"},{"BSTAR":"-0.00015928000000","ARG_OF_PERICENTER":"112.5837","PERIOD":"95.593","MEAN_MOTION":"15.06391846","OBJECT_NAME":"STARLINK-2525","NORAD_CAT_ID":"48482","ECCENTRICITY":"0.00020090","FILE":"3105635","LAUNCH_DATE":"2021-05-09","MEAN_ELEMENT_THEORY":"SGP4","ELEMENT_SET_NO":"999","CLASSIFICATION_TYPE":"U","OBJECT_TYPE":"PAYLOAD","REF_FRAME":"TEME","EPOCH":"2021-08-30T04:31:04.478592","TLE_LINE1":"1 48482U 21040BG  21242.18824628 -.00002653  00000-0 -15928-3 0  9999","SITE":"AFETR","CENTER_NAME":"EARTH","OBJECT_ID":"2021-040BG","APOAPSIS":"548.630","MEAN_MOTION_DOT":"-0.00002653","MEAN_ANOMALY":"247.5364","REV_AT_EPOCH":"1727","GP_ID":"183733576","TLE_LINE2":"2 48482  53.0550  59.9741 0002009 112.5837 247.5364 15.06391846 17270","COUNTRY_CODE":"US","DECAY_DATE":null,"PERIAPSIS":"545.847","RA_OF_ASC_NODE":"59.9741","SEMIMAJOR_AXIS":"6925.374","INCLINATION":"53.0550","MEAN_MOTION_DDOT":"0.0000000000000","RCS_SIZE":"LARGE","EPHEMERIS_TYPE":"0","TIME_SYSTEM":"UTC"}];
